OBJECT_NAME,OBJECT_ID,EPOCH,MEAN_MOTION,ECCENTRICITY,INCLINATION,RA_OF_ASC_NODE,ARG_OF_PERICENTER,MEAN_ANOMALY,EPHEMERIS_TYPE,CLASSIFICATION_TYPE,NORAD_CAT_ID,ELEMENT_SET_NO,REV_AT_EPOCH,BSTAR,MEAN_MOTION_DOT,MEAN_MOTION_DDOT
SHERPA-LTC2,2022-107BG,2026-07-18T22:36:15.249024,14.69935004,.03930364,53.2364,85.8837,315.2256,41.7609,0,U,53754,999,20721,.10835523E-3,.1865E-4,0
CENTISPACE-1 S3,2022-108A,2026-07-18T21:02:02.308704,14.61285347,.00108044,53.5333,284.2195,73.0509,287.1650,0,U,53757,999,20616,.53543321E-4,.77E-6,0
CENTISPACE-1 S4,2022-108B,2026-07-18T21:56:27.041568,14.61970547,.00101692,53.5307,281.4301,62.5767,297.6242,0,U,53758,999,20620,.31804967E-4,-.3E-6,0
BLUEWALKER-3,2022-111AL,2026-07-18T07:08:03.268320,15.38628548,.00045985,53.2279,247.8770,280.0203,80.0283,0,U,53807,999,21499,.77918739E-4,.2622E-4,0
YUNHAI-1 03,2022-115A,2026-07-18T21:26:28.097664,14.32738689,.00039256,98.5547,197.6400,327.0511,33.0428,0,U,53877,999,20005,.96414843E-4,.219E-5,0
CENTISPACE-1 S5,2022-126A,2026-07-18T22:07:09.168960,14.63060724,.00141987,54.9992,85.9638,131.6077,228.6136,0,U,54020,999,20168,.10001983E-3,.328E-5,0
CENTISPACE-1 S6,2022-126B,2026-07-18T22:20:16.153728,14.62320345,.00159896,54.9994,87.9418,132.9742,227.2595,0,U,54021,999,20164,.90775482E-4,.273E-5,0
OTB-3-GAZELLE,2022-127A,2026-07-18T21:27:30.005856,14.42684760,.00144667,98.3963,191.1184,92.6831,267.6015,0,U,54023,999,19893,.30028623E-4,.57E-6,0
ASO-S,2022-129A,2026-07-18T22:49:55.458048,14.52075895,.00142829,98.2758,204.5785,0.9702,359.1519,0,U,54029,999,20003,.31434662E-4,.83E-6,0
HJ-2E,2022-132A,2026-07-18T23:06:29.490048,15.22723330,.00180786,97.3808,203.7774,255.7847,104.1381,0,U,54035,999,20925,.18082168E-3,.4164E-4,0
COSMOS 2561,2022-137A,2026-07-18T21:10:29.716032,15.52430300,.0008199,96.9163,257.7112,264.0400,95.9920,0,U,54109,999,21126,.12437E-3,.7516E-4,0
GONETS-M 23,2022-139A,2026-07-18T23:29:08.176704,12.42892049,.00222649,82.5097,328.5376,150.5293,209.7047,0,U,54150,999,16959,.20938743E-3,.39E-6,0
GONETS-M 24,2022-139B,2026-07-18T22:50:20.349024,12.42892549,.00173528,82.5014,327.5925,160.1726,200.0032,0,U,54151,999,16959,.14889581E-3,.31E-6,0
GONETS-M 25,2022-139C,2026-07-18T22:30:48.759840,12.42890938,.00212914,82.5079,328.3043,159.1466,201.0487,0,U,54152,999,16959,.13652676E-3,.29E-6,0
SKIF-D,2022-139D,2026-07-16T00:52:51.381984,5.00431247,.00074543,89.9489,96.6599,187.1492,172.9144,0,U,54153,999,6555,0,.13E-6,0
MATS,2022-147A,2026-07-18T21:16:59.367936,15.05516128,.00141427,97.6835,201.3503,92.4506,267.8340,0,U,54227,999,20253,.14044433E-3,.1961E-4,0
EOS-6 (OCEANSAT-3),2022-158A,2026-07-18T23:18:45.334656,14.46985489,.0000621,98.3550,297.7449,151.8572,208.2654,0,U,54361,999,19243,.41869802E-4,.109E-5,0
DONGPO 09,2022-167D,2026-07-18T22:14:21.393600,15.36983441,.00025427,97.6927,12.3707,44.1579,315.9868,0,U,54685,999,20032,.17759576E-3,.6336E-4,0
DONGPO 08,2022-167E,2026-07-18T21:33:25.383744,15.34227559,.00091045,97.6893,9.3673,62.7106,297.5063,0,U,54686,999,20018,.17175235E-3,.5611E-4,0
2022-167F,2022-167F,2026-07-18T09:21:25.252704,16.35361496,.00102991,97.5951,31.7738,263.4194,96.5930,0,U,54687,999,20183,.91515806E-3,.6849805E-1,.2645507E-5
DONGPO 10,2022-167H,2026-07-18T21:18:47.171808,15.35045402,.00046482,97.6973,11.3834,16.2819,343.8571,0,U,54689,999,20022,.17842119E-3,.5981E-4,0
JILIN-1 GAOFEN 03D48,2022-167P,2026-07-18T20:52:16.398336,15.35839146,.00061202,97.6908,10.7535,17.7224,342.4231,0,U,54695,999,20025,.17359707E-3,.5969E-4,0
STAR VIBE,2023-001A,2026-07-18T22:42:55.367424,15.43414158,.00050746,97.3146,264.5542,18.7640,341.3794,0,U,55009,999,19712,.18625448E-3,.8239E-4,0
BRO-8,2023-001C,2026-07-18T22:32:47.755104,15.50901695,.00044579,97.3177,265.6211,26.3923,333.7556,0,U,55011,999,19712,.34249125E-3,.19747E-3,0
CONNECTA T1.2,2023-001D,2026-07-18T16:48:18.027360,15.53063711,.00034748,97.3235,270.9993,347.8049,12.3120,0,U,55012,999,19743,.377057E-3,.23506E-3,0
BIRKELAND,2023-001G,2026-07-18T23:28:39.758016,15.40574428,.00059548,97.3326,268.0382,7.9303,352.2036,0,U,55015,999,19724,.1180206E-3,.4715E-4,0
ION SCV-008,2023-001AU,2026-07-18T20:27:40.237056,15.28903649,.00132347,97.5716,296.7092,258.6544,101.3209,0,U,55051,999,19617,.11263101E-3,.309E-4,0
ION SCV-007,2023-001BD,2026-07-18T21:22:53.186304,14.77577919,.0011243,97.8989,262.2744,228.9998,131.0241,0,U,55060,999,19093,.29948989E-4,.163E-5,0
HUYGENS,2023-001CN,2026-07-18T23:28:47.107200,15.40575009,.00079958,97.3230,267.2266,338.0631,22.0272,0,U,55093,999,19726,.12583316E-3,.5035E-4,0
SHARJAHSAT-1,2023-001CZ,2026-07-18T22:43:23.324736,15.50205580,.00043876,97.3140,269.1771,8.1737,351.9585,0,U,55104,999,19741,.20276613E-3,.11356E-3,0
