SHERPA-LTC2             
1 53754U 22107BG  26199.94184316  .00001865  00000+0  10836-3 0  9999
2 53754  53.2364  85.8837 0393036 315.2256  41.7609 14.69935004207216
CENTISPACE-1 S3         
1 53757U 22108A   26199.87641561  .00000077  00000+0  53543-4 0  9992
2 53757  53.5333 284.2195 0010804  73.0509 287.1650 14.61285347206164
CENTISPACE-1 S4         
1 53758U 22108B   26199.91420187 -.00000030  00000+0  31805-4 0  9994
2 53758  53.5307 281.4301 0010169  62.5767 297.6242 14.61970547206208
BLUEWALKER-3            
1 53807U 22111AL  26199.29726005  .00002622  00000+0  77919-4 0  9996
2 53807  53.2279 247.8770 0004598 280.0203  80.0283 15.38628548214995
YUNHAI-1 03             
1 53877U 22115A   26199.89338076  .00000219  00000+0  96415-4 0  9992
2 53877  98.5547 197.6400 0003925 327.0511  33.0428 14.32738689200053
CENTISPACE-1 S5         
1 54020U 22126A   26199.92163390  .00000328  00000+0  10002-3 0  9992
2 54020  54.9992  85.9638 0014198 131.6077 228.6136 14.63060724201686
CENTISPACE-1 S6         
1 54021U 22126B   26199.93074252  .00000273  00000+0  90775-4 0  9997
2 54021  54.9994  87.9418 0015989 132.9742 227.2595 14.62320345201646
OTB-3-GAZELLE           
1 54023U 22127A   26199.89409729  .00000057  00000+0  30029-4 0  9992
2 54023  98.3963 191.1184 0014466  92.6831 267.6015 14.42684760198938
ASO-S                   
1 54029U 22129A   26199.95133632  .00000083  00000+0  31435-4 0  9995
2 54029  98.2758 204.5785 0014282   0.9702 359.1519 14.52075895200031
HJ-2E                   
1 54035U 22132A   26199.96284132  .00004164  00000+0  18082-3 0  9995
2 54035  97.3808 203.7774 0018078 255.7847 104.1381 15.22723330209250
COSMOS 2561             
1 54109U 22137A   26199.88228838  .00007516  00000+0  12437-3 0  9996
2 54109  96.9163 257.7112 0008199 264.0400  95.9920 15.52430300211262
GONETS-M 23             
1 54150U 22139A   26199.97856686  .00000039  00000+0  20939-3 0  9991
2 54150  82.5097 328.5376 0022264 150.5293 209.7047 12.42892049169593
GONETS-M 24             
1 54151U 22139B   26199.95162441  .00000031  00000+0  14890-3 0  9990
2 54151  82.5014 327.5925 0017352 160.1726 200.0032 12.42892549169595
GONETS-M 25             
1 54152U 22139C   26199.93806435  .00000029  00000+0  13653-3 0  9990
2 54152  82.5079 328.3043 0021291 159.1466 201.0487 12.42890938169598
SKIF-D                  
1 54153U 22139D   26197.03670581  .00000013  00000+0  00000+0 0  9992
2 54153  89.9489  96.6599 0007454 187.1492 172.9144  5.00431247 65558
MATS                    
1 54227U 22147A   26199.88679824  .00001961  00000+0  14044-3 0  9997
2 54227  97.6835 201.3503 0014142  92.4506 267.8340 15.05516128202538
EOS-6 (OCEANSAT-3)      
1 54361U 22158A   26199.97135804  .00000109  00000+0  41870-4 0  9994
2 54361  98.3550 297.7449 0000621 151.8572 208.2654 14.46985489192435
DONGPO 09               
1 54685U 22167D   26199.92663650  .00006336  00000+0  17760-3 0  9991
2 54685  97.6927  12.3707 0002542  44.1579 315.9868 15.36983441200324
DONGPO 08               
1 54686U 22167E   26199.89821046  .00005611  00000+0  17175-3 0  9998
2 54686  97.6893   9.3673 0009104  62.7106 297.5063 15.34227559200183
2022-167F               
1 54687U 22167F   26199.38987561  .06849805  26455-5  91516-3 0  9994
2 54687  97.5951  31.7738 0010299 263.4194  96.5930 16.35361496201837
DONGPO 10               
1 54689U 22167H   26199.88804597  .00005981  00000+0  17842-3 0  9993
2 54689  97.6973  11.3834 0004648  16.2819 343.8571 15.35045402200220
JILIN-1 GAOFEN 03D48    
1 54695U 22167P   26199.86963424  .00005969  00000+0  17360-3 0  9994
2 54695  97.6908  10.7535 0006120  17.7224 342.4231 15.35839146200256
STAR VIBE               
1 55009U 23001A   26199.94647416  .00008239  00000+0  18625-3 0  9999
2 55009  97.3146 264.5542 0005074  18.7640 341.3794 15.43414158197128
BRO-8                   
1 55011U 23001C   26199.93944161  .00019747  00000+0  34249-3 0  9994
2 55011  97.3177 265.6211 0004457  26.3923 333.7556 15.50901695197129
CONNECTA T1.2           
1 55012U 23001D   26199.70020865  .00023506  00000+0  37706-3 0  9995
2 55012  97.3235 270.9993 0003474 347.8049  12.3120 15.53063711197431
BIRKELAND               
1 55015U 23001G   26199.97823794  .00004715  00000+0  11802-3 0  9999
2 55015  97.3326 268.0382 0005954   7.9303 352.2036 15.40574428197246
ION SCV-008             
1 55051U 23001AU  26199.85254904  .00003090  00000+0  11263-3 0  9993
2 55051  97.5716 296.7092 0013234 258.6544 101.3209 15.28903649196172
ION SCV-007             
1 55060U 23001BD  26199.89089336  .00000163  00000+0  29949-4 0  9991
2 55060  97.8989 262.2744 0011243 228.9998 131.0241 14.77577919190934
HUYGENS                 
1 55093U 23001CN  26199.97832300  .00005035  00000+0  12583-3 0  9991
2 55093  97.3230 267.2266 0007995 338.0631  22.0272 15.40575009197269
SHARJAHSAT-1            
1 55104U 23001CZ  26199.94679774  .00011356  00000+0  20277-3 0  9997
2 55104  97.3140 269.1771 0004387   8.1737 351.9585 15.50205580197411
